COSMOS 2534 [GLONASS-M] 
1 44299U 19030A   23215.31986366  .00000067  00000+0  00000+0 0  9997
2 44299  64.3900 228.0346 0013851 279.8815 162.6525  2.13101953 32585
YAMAL 601               
1 44307U 19031A   23215.76351255  .00000109  00000+0  00000+0 0  9997
2 44307   0.0152 121.7277 0002259  12.5448 141.6478  1.00271553 15413
RCM-1                   
1 44322U 19033A   23216.04505446  .00001576  00000+0  15869-3 0  9993
2 44322  97.7607 222.4766 0001467  88.6770 271.4617 14.92589361225731
RCM-3                   
1 44323U 19033B   23216.13470382  .00001164  00000+0  11864-3 0  9998
2 44323  97.7607 222.6616 0001479  89.2982 270.8406 14.92591043225765
RCM-2                   
1 44324U 19033C   23216.08987992  .00001469  00000+0  14826-3 0  9992
2 44324  97.7608 222.5688 0001471  88.7141 271.4247 14.92589008225744
AT&T T-16               
1 44333U 19034A   23216.00429953 -.00000127  00000+0  00000+0 0  9999
2 44333   0.0154  93.1587 0000277 297.1616 182.6695  1.00271925 15112
EUTELSAT 7C             
1 44334U 19034B   23216.02565490  .00000037  00000+0  00000+0 0  9998
2 44334   0.0772 230.2848 0003500 249.5901 208.6929  1.00273221 15618
BEIDOU-3 IGSO-2         
1 44337U 19035A   23215.26010031 -.00000148  00000+0  00000+0 0  9997
2 44337  55.1549 168.0743 0033371 198.2586 157.9644  1.00284287 15179
PROX-1                  
1 44339U 19036A   23216.08690544  .00008203  00000+0  16287-2 0  9990
2 44339  24.0013  99.8773 0009423  74.1412 286.0119 14.60034213218692
NPSAT1                  
1 44340U 19036B   23216.08817135  .00005649  00000+0  11776-2 0  9998
2 44340  24.0010 112.0010 0009947  46.5180 313.6138 14.57276077218576
OTB                     
1 44341U 19036C   23216.09824288  .00001243  00000+0  24163-3 0  9998
2 44341  23.9974 120.9408 0011691  32.4859 327.6350 14.53706505218514
FORMOSAT 7-3            
1 44343U 19036E   23216.06035561  .00007545  00000+0  42946-3 0  9995
2 44343  23.9995 181.3783 0005144  76.4518 283.6558 15.10126385224842
DSX                     
1 44344U 19036F   23211.58053697 -.00000043  00000+0  00000+0 0  9996
2 44344  42.3383  15.8665 1973162 283.2565  55.6059  4.54370946 67998
FORMOSAT 7-1            
1 44349U 19036L   23214.80463341  .00008805  00000+0  50442-3 0  9992
2 44349  24.0006   6.0250 0003931 308.5499  51.4653 15.10141623226395
FORMOSAT 7-4            
1 44350U 19036M   23215.94988182  .00008134  00000+0  46498-3 0  9996
2 44350  23.9998  60.2334 0000457  47.9601 312.0942 15.10115556225997
FORMOSAT 7-2            
1 44351U 19036N   23216.03883224  .00007890  00000+0  44959-3 0  9997
2 44351  23.9991 113.9610 0004863  75.8252 284.2792 15.10159286225509
FORMOSAT 7-6            
1 44353U 19036Q   23215.37767465  .00007394  00000+0  41999-3 0  9993
2 44353  23.9998 299.3268 0007139  80.1839 279.9470 15.10150465223619
FORMOSAT 7-5            
1 44358U 19036V   23216.08173295  .00007174  00000+0  40734-3 0  9991
2 44358  23.9987 234.2353 0005718  88.1004 272.0155 15.10121643224293
METEOR-M2 2             
1 44387U 19038A   23216.09879656  .00000062  00000+0  46445-4 0  9995
2 44387  98.7788 179.9142 0001956 125.2267 234.9094 14.23795966212125
ICEYE-X5                
1 44389U 19038C   23216.07659553  .00009328  00000+0  66326-3 0  9990
2 44389  97.8927 195.4982 0016213 301.0295  58.9338 15.04794051223192
ICEYE-X4                
1 44390U 19038D   23216.10526485  .00004765  00000+0  37473-3 0  9994
2 44390  97.8535 193.1407 0017304 299.6127  60.3373 15.01232299223109
NSL-1                   
1 44391U 19038E   23215.40201900  .00021999  00000+0  11696-2 0  9995
2 44391  97.8783 199.5048 0015430 253.0560 106.8980 15.15193565223331
VDNH-80                 
1 44392U 19038G   23216.08457799  .00026324  00000+0  85709-3 0  9994
2 44392  97.6747 198.9539 0016902 128.8116 231.4637 15.31693670225638
D-STAR ONE (LIGHTSAT)   
1 44393U 19038H   23215.94687415  .00028417  00000+0  90136-3 0  9994
2 44393  97.6750 198.9478 0016909 128.6986 231.5770 15.32516673225823
AMGU-1 (AMURSAT)        
1 44394U 19038J   23215.39282050  .00031587  00000+0  93979-3 0  9990
2 44394  97.6720 198.7834 0016196 129.1740 231.0944 15.34539508225773
LEMUR-2-LILLYJO         
1 44396U 19038L   23215.69488105  .00040497  00000+0  10165-2 0  9999
2 44396  97.6438 199.6672 0017200 119.6739 240.6221 15.39745424225988
MOVE-IIB                
1 44398U 19038N   23215.49991760  .00070379  00000+0  14270-2 0  9998
2 44398  97.6604 200.7542 0016464 118.4450 241.8460 15.45992351225969
DOT-1                   
1 44399U 19038P   23215.42844096  .00014785  00000+0  60588-3 0  9994
2 44399  97.6848 194.8079 0020580 145.9738 214.2823 15.24187495225471
SONATE                  
1 44400U 19038Q   23215.44336426  .00011385  00000+0  49483-3 0  9996
2 44400  97.6865 194.1014 0021747 143.0462 217.2276 15.22240177225429
LEMUR-2-WANLI           
1 44402U 19038S   23215.93558777  .00029950  00000+0  69333-3 0  9990
2 44402  97.6415 199.9241 0016782 119.2547 241.0380 15.42265309226023
LEMUR-2-MORAG           
1 44403U 19038T   23215.89084864  .00036323  00000+0  10134-2 0  9993
2 44403  97.6517 199.9066 0017643 120.5636 239.7350 15.36501943225966
SOKRAT                  
1 44404U 19038U   23215.47728420  .00029872  00000+0  90414-3 0  9992
2 44404  97.6737 198.3412 0016754 130.5527 229.7176 15.33999695225755
LEMUR-2-DUSTINTHEWIND   
1 44405U 19038V   23214.92917360  .00020520  00000+0  55175-3 0  9991
2 44405  97.6501 198.0742 0018169 118.5624 241.7451 15.37757417225819
LUCKY-7                 
1 44406U 19038W   23215.43372566  .00016066  00000+0  63466-3 0  9994
2 44406  97.6825 195.5654 0020388 136.9671 223.3164 15.25402269225529
LEMUR-2-ALEX-MADDY      
1 44407U 19038X   23215.93601032  .00024236  00000+0  79207-3 0  9991
2 44407  97.6626 197.3927 0018588 129.3021 230.9871 15.31561231225763
MOMENTUS-X1             
1 44408U 19038Y   23215.39403268  .00007311  00000+0  34608-3 0  9994
2 44408  97.6839 192.3241 0021550 148.4462 211.8070 15.19454359225361
LEMUR-2-EJATTA          
1 44409U 19038Z   23214.94237770  .00026854  00000+0  68482-3 0  9998
2 44409  97.6454 199.2206 0017182 116.4814 243.8196 15.39349252225905
D-STAR ONE (EXOCONNECT) 
1 44410U 19038AA  23215.71109759  .00126843  00000+0  17217-2 0  9999
2 44410  97.6601 204.3484 0013796 117.3380 242.9280 15.57091026226203
LEMUR-2-GREGROBINSON    
1 44411U 19038AB  23215.90113336  .00017572  00000+0  42637-3 0  9990
2 44411  97.6463 200.9734 0018246 132.8926 227.3855 15.40932277225706
BEESAT 9                
1 44412U 19038AC  23215.39747934  .00027152  00000+0  86855-3 0  9996
2 44412  97.6760 197.6709 0017302 133.0676 227.2017 15.32248067225389
LEMUR-2-YNDRD           
1 44413U 19038AD  23214.91322091  .00015446  00000+0  48087-3 0  9995
2 44413  97.6576 196.4510 0017546 128.8380 231.4431 15.33233434225645
NARSSCUBE-2             
1 44415U 19022E   23216.10586205  .00029666  00000+0  49691-3 0  9993
2 44415  51.6328 260.9141 0008093 106.6348 253.5530 15.51568331223745
JAISAT-1                
1 44419U 19038F   23215.92574026  .00028173  00000+0  89253-3 0  9991
2 44419  97.6754 199.3208 0016640 128.0197 232.2549 15.32561423225849
COSMOS 2536             
1 44422U 19039B   23216.12045018  .00027571  00000+0  20431-2 0  9996
2 44422  97.7169 262.1661 0007892 114.2014 246.0036 15.03048227220850
COSMOS 2537             
1 44423U 19039C   23216.11363926  .00155745  00000+0  50963-2 0  9995
2 44423  97.7256 273.5375 0003330 146.1044 214.0409 15.31030521221271
COSMOS 2538             
1 44424U 19039D   23216.10997966  .00004909  00000+0  34804-3 0  9994
2 44424  97.7160 278.3543 0060896  44.2847 316.3227 15.03740450221536
YAOGAN-30 N             
1 44449U 19045A   23216.11139160  .00003005  00000+0  28906-3 0  9995
2 44449  34.9927 190.5516 0004301 185.0891 174.9771 14.92592687219414
YAOGAN-30 P             
1 44450U 19045B   23216.09023654  .00003135  00000+0  30101-3 0  9998
2 44450  34.9920 190.2992 0010079 321.5613  38.4374 14.92627247219416
YAOGAN-30 Q             
1 44451U 19045C   23216.06695463  .00003001  00000+0  28874-3 0  9995
2 44451  34.9929 190.2338 0001392 305.9521  54.1054 14.92588296219388
MERIDIAN 8              
1 44453U 19046A   23213.92598184  .00000143  00000+0  00000+0 0  9993
2 44453  62.6790 170.8399 6713316 273.9683  17.7933  2.00601473 29356
COSMOS 2539             
1 44457U 19048A   23215.74018897  .00000070  00000+0  00000+0 0  9998
2 44457   0.0227 117.6428 0001168 172.5022 300.3252  1.00273107 14710
EDRS-C                  
1 44475U 19049A   23215.04848709  .00000144  00000+0  00000+0 0  9997
2 44475   0.0776 256.2177 0000485 205.8225 257.9495  1.00271812 14678
INTELSAT 39 (IS-39)     
1 44476U 19049B   23216.03672484  .00000022  00000+0  00000+0 0  9998
2 44476   0.0166  92.4812 0000916 267.1344  27.8913  1.00271767 14623
AMOS-17                 
1 44479U 19050A   23215.73827381  .00000098  00000+0  00000+0 0  9990
2 44479   0.0231  90.1849 0001590  52.2263  92.4017  1.00270531 14661
AEHF-5 (USA 292)        
1 44481U 19051A   23215.76890449  .00000076  00000+0  00000+0 0  9998
2 44481   3.4056 304.8780 0042690 357.8255 340.7136  1.00267659 14743
BRO-1                   
1 44495U 19054A   23215.63121382  .00008691  00000+0  46299-3 0  9990
2 44495  45.0161 340.0652 0006271 116.4106 243.7417 15.15593032218441
PEARL WHITE 1           
1 44497U 19054C   23215.38564101  .00011766  00000+0  56673-3 0  9998
2 44497  45.0076 335.1828 0003861 145.6325 214.4805 15.18853012218421
PEARL WHITE 2           
1 44498U 19054D   23215.37917447  .00013975  00000+0  66498-3 0  9993
2 44498  45.0089 331.8057 0004375 132.2995 227.8257 15.19140373218484
GLOBAL-4                
1 44499U 19054E   23215.25492741  .00008994  00000+0  40892-3 0  9991
2 44499  45.0103 293.3023 0008939 168.2755 191.8336 15.21085689218928
